{
  "type": "FeatureCollection",
  "features": [
    {
      "type": "Feature",
      "properties": {
        "norad_id": 44231,
        "name": "BEIDOU-2 G8 (C01)",
        "group": "gnss",
        "lat": 0.7115403635610315,
        "lon": 98.82701672874413,
        "alt_km": 35805.23443332009,
        "timestamp": "2025-12-24T14:43:29.245797+00:00",
        "meta_object_name": "BEIDOU-2 G8 (C01)",
        "meta_object_id": "2019-027A",
        "meta_epoch": "2025-12-24T06:56:18.050784",
        "meta_mean_motion": 1.00274864,
        "meta_eccentricity": 0.00083051,
        "meta_inclination": 1.6893,
        "meta_ra_of_asc_node": 74.7354,
        "meta_arg_of_pericenter": 259.2231,
        "meta_mean_anomaly": 7.6859,
        "meta_ephemeris_type": 0,
        "meta_classification_type": "U",
        "meta_norad_cat_id": 44231,
        "meta_element_set_no": 999,
        "meta_rev_at_epoch": 2432,
        "meta_bstar": 0,
        "meta_mean_motion_dot": -2.26e-06,
        "meta_mean_motion_ddot": 0,
        "tle_line1": "1 44231U 19027A   25358.28909781 -.00000226  00000+0  00000+0 0  9999",
        "tle_line2": "2 44231   1.6893  74.7354 0008305 259.2231   7.6859  1.00274864 24321"
      },
      "geometry": {
        "type": "Point",
        "coordinates": [
          98.82701672874413,
          0.7115403635610315
        ]
      }
    },
    {
      "type": "Feature",
      "properties": {
        "norad_id": 44299,
        "name": "COSMOS 2534 (758)",
        "group": "gnss",
        "lat": 42.21049454101666,
        "lon": -7.336046029280523,
        "alt_km": 19144.330707386252,
        "timestamp": "2025-12-24T14:43:29.245809+00:00",
        "meta_object_name": "COSMOS 2534 (758)",
        "meta_object_id": "2019-030A",
        "meta_epoch": "2025-12-24T03:52:14.937600",
        "meta_mean_motion": 2.13102191,
        "meta_eccentricity": 0.00085971,
        "meta_inclination": 64.3662,
        "meta_ra_of_asc_node": 198.5079,
        "meta_arg_of_pericenter": 283.6548,
        "meta_mean_anomaly": 221.2586,
        "meta_ephemeris_type": 0,
        "meta_classification_type": "U",
        "meta_norad_cat_id": 44299,
        "meta_element_set_no": 999,
        "meta_rev_at_epoch": 5119,
        "meta_bstar": 0,
        "meta_mean_motion_dot": 9.8e-07,
        "meta_mean_motion_ddot": 0,
        "tle_line1": "1 44299U 19030A   25358.16128400  .00000098  00000+0  00000+0 0  9991",
        "tle_line2": "2 44299  64.3662 198.5079 0008597 283.6548 221.2586  2.13102191 51193"
      },
      "geometry": {
        "type": "Point",
        "coordinates": [
          -7.336046029280523,
          42.21049454101666
        ]
      }
    },
    {
      "type": "Feature",
      "properties": {
        "norad_id": 44337,
        "name": "BEIDOU-3 IGSO-2 (C39)",
        "group": "gnss",
        "lat": -55.02178126835091,
        "lon": 76.78888432623476,
        "alt_km": 35742.161206729936,
        "timestamp": "2025-12-24T14:43:29.245820+00:00",
        "meta_object_name": "BEIDOU-3 IGSO-2 (C39)",
        "meta_object_id": "2019-035A",
        "meta_epoch": "2025-12-23T20:34:24.431808",
        "meta_mean_motion": 1.00267916,
        "meta_eccentricity": 0.00378021,
        "meta_inclination": 55.2291,
        "meta_ra_of_asc_node": 160.4037,
        "meta_arg_of_pericenter": 202.4581,
        "meta_mean_anomaly": 157.7229,
        "meta_ephemeris_type": 0,
        "meta_classification_type": "U",
        "meta_norad_cat_id": 44337,
        "meta_element_set_no": 999,
        "meta_rev_at_epoch": 2391,
        "meta_bstar": 0,
        "meta_mean_motion_dot": -7.4e-07,
        "meta_mean_motion_ddot": 0,
        "tle_line1": "1 44337U 19035A   25357.85722722 -.00000074  00000+0  00000+0 0  9996",
        "tle_line2": "2 44337  55.2291 160.4037 0037802 202.4581 157.7229  1.00267916 23910"
      },
      "geometry": {
        "type": "Point",
        "coordinates": [
          76.78888432623476,
          -55.02178126835091
        ]
      }
    },
    {
      "type": "Feature",
      "properties": {
        "norad_id": 44506,
        "name": "GPS BIII-2  (PRN 18)",
        "group": "gnss",
        "lat": -20.90872340191269,
        "lon": -37.03293468579709,
        "alt_km": 20294.168802746157,
        "timestamp": "2025-12-24T14:43:29.245832+00:00",
        "meta_object_name": "GPS BIII-2  (PRN 18)",
        "meta_object_id": "2019-056A",
        "meta_epoch": "2025-12-23T09:23:28.795200",
        "meta_mean_motion": 2.0056658,
        "meta_eccentricity": 0.00577459,
        "meta_inclination": 55.7176,
        "meta_ra_of_asc_node": 338.1305,
        "meta_arg_of_pericenter": 198.6012,
        "meta_mean_anomaly": 332.8304,
        "meta_ephemeris_type": 0,
        "meta_classification_type": "U",
        "meta_norad_cat_id": 44506,
        "meta_element_set_no": 999,
        "meta_rev_at_epoch": 4654,
        "meta_bstar": 0,
        "meta_mean_motion_dot": -6.4e-07,
        "meta_mean_motion_ddot": 0,
        "tle_line1": "1 44506U 19056A   25357.39130550 -.00000064  00000+0  00000+0 0  9997",
        "tle_line2": "2 44506  55.7176 338.1305 0057745 198.6012 332.8304  2.00566580 46544"
      },
      "geometry": {
        "type": "Point",
        "coordinates": [
          -37.03293468579709,
          -20.90872340191269
        ]
      }
    },
    {
      "type": "Feature",
      "properties": {
        "norad_id": 44542,
        "name": "BEIDOU-3 M24 (C46)",
        "group": "gnss",
        "lat": -53.04502388556686,
        "lon": 116.3137715301905,
        "alt_km": 21541.09383520738,
        "timestamp": "2025-12-24T14:43:29.245843+00:00",
        "meta_object_name": "BEIDOU-3 M24 (C46)",
        "meta_object_id": "2019-061A",
        "meta_epoch": "2025-12-23T15:47:40.430112",
        "meta_mean_motion": 1.86229437,
        "meta_eccentricity": 0.00095913,
        "meta_inclination": 54.4006,
        "meta_ra_of_asc_node": 188.6475,
        "meta_arg_of_pericenter": 26.0313,
        "meta_mean_anomaly": 334.0556,
        "meta_ephemeris_type": 0,
        "meta_classification_type": "U",
        "meta_norad_cat_id": 44542,
        "meta_element_set_no": 999,
        "meta_rev_at_epoch": 4252,
        "meta_bstar": 0,
        "meta_mean_motion_dot": 9.9e-07,
        "meta_mean_motion_ddot": 0,
        "tle_line1": "1 44542U 19061A   25357.65810683  .00000099  00000+0  00000+0 0  9991",
        "tle_line2": "2 44542  54.4006 188.6475 0009591  26.0313 334.0556  1.86229437 42529"
      },
      "geometry": {
        "type": "Point",
        "coordinates": [
          116.3137715301905,
          -53.04502388556686
        ]
      }
    },
    {
      "type": "Feature",
      "properties": {
        "norad_id": 44543,
        "name": "BEIDOU-3 M23 (C45)",
        "group": "gnss",
        "lat": -10.829303861173887,
        "lon": 16.467266412414045,
        "alt_km": 21546.486599602984,
        "timestamp": "2025-12-24T14:43:29.245855+00:00",
        "meta_object_name": "BEIDOU-3 M23 (C45)",
        "meta_object_id": "2019-061B",
        "meta_epoch": "2025-12-24T01:09:49.421952",
        "meta_mean_motion": 1.86227524,
        "meta_eccentricity": 0.00060474,
        "meta_inclination": 54.3997,
        "meta_ra_of_asc_node": 188.6027,
        "meta_arg_of_pericenter": 26.1168,
        "meta_mean_anomaly": 148.3907,
        "meta_ephemeris_type": 0,
        "meta_classification_type": "U",
        "meta_norad_cat_id": 44543,
        "meta_element_set_no": 999,
        "meta_rev_at_epoch": 4253,
        "meta_bstar": 0,
        "meta_mean_motion_dot": 1.01e-06,
        "meta_mean_motion_ddot": 0,
        "tle_line1": "1 44543U 19061B   25358.04848868  .00000101  00000+0  00000+0 0  9996",
        "tle_line2": "2 44543  54.3997 188.6027 0006047  26.1168 148.3907  1.86227524 42535"
      },
      "geometry": {
        "type": "Point",
        "coordinates": [
          16.467266412414045,
          -10.829303861173887
        ]
      }
    },
    {
      "type": "Feature",
      "properties": {
        "norad_id": 44624,
        "name": "EUTELSAT 5 WEST B (EGNOS/PRN 121)",
        "group": "gnss",
        "lat": -0.052307021327217304,
        "lon": -50.72520853257355,
        "alt_km": 35775.6730723278,
        "timestamp": "2025-12-24T14:43:29.245872+00:00",
        "meta_object_name": "EUTELSAT 5 WEST B (EGNOS/PRN 121)",
        "meta_object_id": "2019-067A",
        "meta_epoch": "2025-12-24T06:13:37.139232",
        "meta_mean_motion": 1.00271324,
        "meta_eccentricity": 0.00031173,
        "meta_inclination": 0.0638,
        "meta_ra_of_asc_node": 342.4583,
        "meta_arg_of_pericenter": 289.7329,
        "meta_mean_anomaly": 269.2531,
        "meta_ephemeris_type": 0,
        "meta_classification_type": "U",
        "meta_norad_cat_id": 44624,
        "meta_element_set_no": 999,
        "meta_rev_at_epoch": 2268,
        "meta_bstar": 0,
        "meta_mean_motion_dot": -2.1e-07,
        "meta_mean_motion_ddot": 0,
        "tle_line1": "1 44624U 19067A   25358.25945763 -.00000021  00000+0  00000+0 0  9999",
        "tle_line2": "2 44624   0.0638 342.4583 0003117 289.7329 269.2531  1.00271324 22686"
      },
      "geometry": {
        "type": "Point",
        "coordinates": [
          -50.72520853257355,
          -0.052307021327217304
        ]
      }
    }
  ]
}